{
  "type": "FeatureCollection",
  "features": [
    {
      "type": "Feature",
      "properties": {
        "norad_id": 35052,
        "name": "IRIDIUM 33 DEB",
        "group": "iridium-33-debris",
        "lat": 53.69811696365909,
        "lon": -163.46244323461158,
        "alt_km": 750.461918353366,
        "timestamp": "2025-12-10T05:46:14.211258+00:00",
        "meta_object_name": "IRIDIUM 33 DEB",
        "meta_object_id": "1997-051NY",
        "meta_epoch": "2025-12-09T09:09:14.071104",
        "meta_mean_motion": 14.38486944,
        "meta_eccentricity": 0.00136896,
        "meta_inclination": 86.3313,
        "meta_ra_of_asc_node": 21.9161,
        "meta_arg_of_pericenter": 94.3861,
        "meta_mean_anomaly": 265.8902,
        "meta_ephemeris_type": 0,
        "meta_classification_type": "U",
        "meta_norad_cat_id": 35052,
        "meta_element_set_no": 999,
        "meta_rev_at_epoch": 87227,
        "meta_bstar": 0.00032817841,
        "meta_mean_motion_dot": 1.023e-05,
        "meta_mean_motion_ddot": 0,
        "tle_line1": "1 35052U 97051NY  25343.38141286  .00001023  00000+0  32818-3 0  9997",
        "tle_line2": "2 35052  86.3313  21.9161 0013689  94.3861 265.8902 14.38486944872278"
      },
      "geometry": {
        "type": "Point",
        "coordinates": [
          -163.46244323461158,
          53.69811696365909
        ]
      }
    },
    {
      "type": "Feature",
      "properties": {
        "norad_id": 35080,
        "name": "IRIDIUM 33 DEB",
        "group": "iridium-33-debris",
        "lat": -56.0647311791747,
        "lon": -120.77029704763237,
        "alt_km": 590.0753144159908,
        "timestamp": "2025-12-10T05:46:14.211268+00:00",
        "meta_object_name": "IRIDIUM 33 DEB",
        "meta_object_id": "1997-051PF",
        "meta_epoch": "2025-12-09T10:55:41.938464",
        "meta_mean_motion": 14.85397119,
        "meta_eccentricity": 0.00616418,
        "meta_inclination": 86.2064,
        "meta_ra_of_asc_node": 53.9454,
        "meta_arg_of_pericenter": 191.0106,
        "meta_mean_anomaly": 168.9774,
        "meta_ephemeris_type": 0,
        "meta_classification_type": "U",
        "meta_norad_cat_id": 35080,
        "meta_element_set_no": 999,
        "meta_rev_at_epoch": 69639,
        "meta_bstar": 0.010046072,
        "meta_mean_motion_dot": 0.00090518,
        "meta_mean_motion_ddot": 0,
        "tle_line1": "1 35080U 97051PF  25343.45534651  .00090518  00000+0  10046-1 0  9992",
        "tle_line2": "2 35080  86.2064  53.9454 0061641 191.0106 168.9774 14.85397119696393"
      },
      "geometry": {
        "type": "Point",
        "coordinates": [
          -120.77029704763237,
          -56.0647311791747
        ]
      }
    },
    {
      "type": "Feature",
      "properties": {
        "norad_id": 35297,
        "name": "IRIDIUM 33 DEB",
        "group": "iridium-33-debris",
        "lat": -26.945478023951722,
        "lon": 61.986478562161885,
        "alt_km": 759.4368808526951,
        "timestamp": "2025-12-10T05:46:14.211278+00:00",
        "meta_object_name": "IRIDIUM 33 DEB",
        "meta_object_id": "1997-051PM",
        "meta_epoch": "2025-12-06T00:31:29.302752",
        "meta_mean_motion": 14.45108459,
        "meta_eccentricity": 0.00170329,
        "meta_inclination": 86.3867,
        "meta_ra_of_asc_node": 65.6268,
        "meta_arg_of_pericenter": 161.2449,
        "meta_mean_anomaly": 198.9384,
        "meta_ephemeris_type": 0,
        "meta_classification_type": "U",
        "meta_norad_cat_id": 35297,
        "meta_element_set_no": 999,
        "meta_rev_at_epoch": 70329,
        "meta_bstar": 0.0012426888,
        "meta_mean_motion_dot": 4.371e-05,
        "meta_mean_motion_ddot": 0,
        "tle_line1": "1 35297U 97051PM  25340.02186693  .00004371  00000+0  12427-2 0  9999",
        "tle_line2": "2 35297  86.3867  65.6268 0017032 161.2449 198.9384 14.45108459703293"
      },
      "geometry": {
        "type": "Point",
        "coordinates": [
          61.986478562161885,
          -26.945478023951722
        ]
      }
    },
    {
      "type": "Feature",
      "properties": {
        "norad_id": 35299,
        "name": "IRIDIUM 33 DEB",
        "group": "iridium-33-debris",
        "lat": -55.538772327658364,
        "lon": 28.846607081934536,
        "alt_km": 803.593284637449,
        "timestamp": "2025-12-10T05:46:14.211288+00:00",
        "meta_object_name": "IRIDIUM 33 DEB",
        "meta_object_id": "1997-051PP",
        "meta_epoch": "2025-12-09T03:37:25.282848",
        "meta_mean_motion": 14.40832112,
        "meta_eccentricity": 0.00588898,
        "meta_inclination": 86.2882,
        "meta_ra_of_asc_node": 34.7485,
        "meta_arg_of_pericenter": 113.8076,
        "meta_mean_anomaly": 303.2931,
        "meta_ephemeris_type": 0,
        "meta_classification_type": "U",
        "meta_norad_cat_id": 35299,
        "meta_element_set_no": 999,
        "meta_rev_at_epoch": 86279,
        "meta_bstar": 0.00094086001,
        "meta_mean_motion_dot": 3.095e-05,
        "meta_mean_motion_ddot": 0,
        "tle_line1": "1 35299U 97051PP  25343.15098707  .00003095  00000+0  94086-3 0  9990",
        "tle_line2": "2 35299  86.2882  34.7485 0058889 113.8076 303.2931 14.40832112862798"
      },
      "geometry": {
        "type": "Point",
        "coordinates": [
          28.846607081934536,
          -55.538772327658364
        ]
      }
    },
    {
      "type": "Feature",
      "properties": {
        "norad_id": 35480,
        "name": "IRIDIUM 33 DEB",
        "group": "iridium-33-debris",
        "lat": -35.43868801214506,
        "lon": 23.396971739166315,
        "alt_km": 742.3687317691702,
        "timestamp": "2025-12-10T05:46:14.211298+00:00",
        "meta_object_name": "IRIDIUM 33 DEB",
        "meta_object_id": "1997-051QA",
        "meta_epoch": "2025-12-09T19:59:43.135296",
        "meta_mean_motion": 14.49744631,
        "meta_eccentricity": 0.0015927,
        "meta_inclination": 86.357,
        "meta_ra_of_asc_node": 26.1722,
        "meta_arg_of_pericenter": 113.2937,
        "meta_mean_anomaly": 246.9945,
        "meta_ephemeris_type": 0,
        "meta_classification_type": "U",
        "meta_norad_cat_id": 35480,
        "meta_element_set_no": 999,
        "meta_rev_at_epoch": 86989,
        "meta_bstar": 0.00091935,
        "meta_mean_motion_dot": 3.565e-05,
        "meta_mean_motion_ddot": 0,
        "tle_line1": "1 35480U 97051QA  25343.83313814  .00003565  00000+0  91935-3 0  9998",
        "tle_line2": "2 35480  86.3570  26.1722 0015927 113.2937 246.9945 14.49744631869893"
      },
      "geometry": {
        "type": "Point",
        "coordinates": [
          23.396971739166315,
          -35.43868801214506
        ]
      }
    },
    {
      "type": "Feature",
      "properties": {
        "norad_id": 35484,
        "name": "IRIDIUM 33 DEB",
        "group": "iridium-33-debris",
        "lat": 51.05248592159181,
        "lon": -1.569599825674736,
        "alt_km": 564.9858468275443,
        "timestamp": "2025-12-10T05:46:14.211312+00:00",
        "meta_object_name": "IRIDIUM 33 DEB",
        "meta_object_id": "1997-051QE",
        "meta_epoch": "2025-12-09T18:19:22.021248",
        "meta_mean_motion": 14.98336228,
        "meta_eccentricity": 0.0023298,
        "meta_inclination": 86.3609,
        "meta_ra_of_asc_node": 354.1372,
        "meta_arg_of_pericenter": 134.8315,
        "meta_mean_anomaly": 225.4815,
        "meta_ephemeris_type": 0,
        "meta_classification_type": "U",
        "meta_norad_cat_id": 35484,
        "meta_element_set_no": 999,
        "meta_rev_at_epoch": 61971,
        "meta_bstar": 0.0036944,
        "meta_mean_motion_dot": 0.00044475,
        "meta_mean_motion_ddot": 0,
        "tle_line1": "1 35484U 97051QE  25343.76344932  .00044475  00000+0  36944-2 0  9992",
        "tle_line2": "2 35484  86.3609 354.1372 0023298 134.8315 225.4815 14.98336228619719"
      },
      "geometry": {
        "type": "Point",
        "coordinates": [
          -1.569599825674736,
          51.05248592159181
        ]
      }
    },
    {
      "type": "Feature",
      "properties": {
        "norad_id": 35488,
        "name": "IRIDIUM 33 DEB",
        "group": "iridium-33-debris",
        "lat": -59.95527303267675,
        "lon": -64.35056798826082,
        "alt_km": 634.636435359279,
        "timestamp": "2025-12-10T05:46:14.211331+00:00",
        "meta_object_name": "IRIDIUM 33 DEB",
        "meta_object_id": "1997-051QJ",
        "meta_epoch": "2025-12-08T21:39:05.105088",
        "meta_mean_motion": 14.8290127,
        "meta_eccentricity": 0.0030312,
        "meta_inclination": 86.3246,
        "meta_ra_of_asc_node": 302.6469,
        "meta_arg_of_pericenter": 55.0525,
        "meta_mean_anomaly": 305.3538,
        "meta_ephemeris_type": 0,
        "meta_classification_type": "U",
        "meta_norad_cat_id": 35488,
        "meta_element_set_no": 999,
        "meta_rev_at_epoch": 88209,
        "meta_bstar": 0.0019549,
        "meta_mean_motion_dot": 0.00016018,
        "meta_mean_motion_ddot": 0,
        "tle_line1": "1 35488U 97051QJ  25342.90214242  .00016018  00000+0  19549-2 0  9995",
        "tle_line2": "2 35488  86.3246 302.6469 0030312  55.0525 305.3538 14.82901270882098"
      },
      "geometry": {
        "type": "Point",
        "coordinates": [
          -64.35056798826082,
          -59.95527303267675
        ]
      }
    }
  ]
}